STARLINK-1540           
1 46051U 20055AA  26068.66670139  .00011200  00000+0  38992-3 0  9995
2 46051  53.1586 113.9518 0001277  96.4813 168.6408 15.30181677  5649
FLOCK 4BE-27            
1 60513U 24149AX  26068.75339182  .00011439  00000+0  36576-3 0  9992
2 60513  97.3862 150.6783 0002732 305.8980  54.2008 15.32593322 86906
